#dP2022  2 14  6  0  0.00000000      96 __u+U ITR00 EXT  IAC
## 2197 108000.00000000   900.00000000 59624 0.2500000000000
+  116   C06C07C08C09C10C11C12C13C14C16C19C20C21C22C23C24C25
+        C26C27C28C29C30C32C33C34C35C36C37C38C39C40C41C42C43
+        C44C45C46E01E02E03E04E05E07E08E09E11E12E13E14E15E18
+        E21E24E25E26E27E30E31E33E34E36G01G02G03G04G05G06G07
+        G08G09G10G11G12G13G14G15G16G17G18G19G20G21G22G23G24
+        G25G26G27G28G29G30G31G32J01J02J03R01R02R03R04R05R07
+        R08R09R11R12R13R14R15R17R18R19R20R21R22R24  0  0  0
++        10 11  0 11 10  8  9  9  8 10 17  9  8  8  9  8  8
++         8  8  9  9 10  8  8  8 11  9  8 10 10 10  9  7  8
++         9  7 10  8  8  8  9  7  8  9  8  8  8  8  9  8  9
++         8  8  8  8  9  8  9  8 11  8  8  9  8  9  8  7  8
++         8  7  9  8  8  8  8  8  9  7  8  8  8  8  8  8  7
++         8  7  8  8  8  8  8  7 11 11 10  9  8  8  9  9  9
++         8  9  9  9  7  9  8  9  8  8 10  9  9  8  0  0  0
%c M  cc GPS ccc cccc cccc cccc cccc ccccc ccccc ccccc ccccc
%c cc cc ccc ccc cccc cccc cccc cccc ccccc ccccc ccccc ccccc
%f  0.0000000  0.000000000  0.00000000000  0.000000000000000
%f  0.0000000  0.000000000  0.00000000000  0.000000000000000
%i    0    0    0    0      0      0      0      0         0
%i    0    0    0    0      0      0      0      0         0
/* IAC                                ULTRA-RAPID PREDICTION
/* S/V CLOCKS ARE ALIGNED TO GNSS TIME                      
/* G:C1WC2W R:C1PC2P E:C1XC5X C:C2IC6I J:C1CC2S             
/* PCV:IGS14_2194 OL/AL:FES2004  NONE     YN ORB:CoN CLK:CoN
*  2022 02 14 23 45  0.00000000
PC06  -3290.881552  26657.948464  32539.823899     51.809234
PC07 -18024.769160  31280.171479 -21881.891872    -54.156016
PC08  -7980.941214  40425.754722  -8531.430316    134.720863
PC09   6215.028600  30984.831057  28465.942806   -523.518084
PC10 -11015.253719  31279.594817 -26030.649203    139.831037
PC11  21819.647030  17306.158294  -1467.909613   -207.803915
PC12   8465.722805  20143.059906 -17314.080002    680.858133
PC13  -2830.693675  41912.746888  -1063.028696   -116.471916
PC14  16835.212307   7937.321361  20799.178891    455.307059
PC16  -3884.893495  25808.768565  33308.142568     82.387511
PC19 -23491.299508   -316.171940 -15044.300980    897.360871
PC20  -9321.758927 -12973.764047 -22866.307306   -823.368627
PC21 -11401.106135  18615.165066  17414.904472   -947.253235
PC22 -24658.562909  12971.726548   1787.241895   -957.920628
PC23  15045.235217 -13650.878059 -19139.124166   -960.118031
PC24   6155.389650  24619.986346 -11588.156973   -943.865217
PC25  15564.647279   6474.465379 -22245.612134   -779.339629
PC26  -4849.201260  27122.119832   4286.162641    779.057518
PC27   1043.286064 -17620.861603  21592.411235    677.518357
PC28  17906.106272  -4881.974030  20844.370369     32.808034
PC29 -24869.096330 -10088.429659  -7640.890508    515.248156
PC30 -16742.436329 -19730.328957  10410.471416    493.357004
PC32  11304.897090 -18690.738051 -17346.050198   -965.723821
PC33  23440.999331    307.119843  15136.119029   -957.419259
PC34  17444.878404  19595.752568  -9558.347617   -468.872284
PC35 -18276.763696   4963.767781 -20487.374149    140.047980
PC36 -15288.755177  -7424.040025  22150.794080   -904.389497
PC37   6175.610721 -26699.905646  -5330.714480   -962.366702
PC38 -11590.180528  37846.867964 -14264.593762    211.466148
PC39  -9969.796733  22094.972845  34513.209537     34.781158
PC40 -24558.904231  26151.169473 -22289.038241    244.466558
PC41  24778.428065 -12772.496002  -1288.758452   -937.570689
PC42   8326.156004  13593.893670  22949.565108   -931.298536
PC43  24839.626941  10655.717214   6994.242294   -941.693390
PC44   -673.738239  17696.694113 -21583.018432    565.059209
PC45 -14866.530227  13879.487096  19090.299793    680.721992
PC46  -6940.656262 -23864.944140  12728.068847   -168.970217
PE01 -20618.921637   5658.500268  20459.744289   -579.218891
PE02  20675.675884  -5842.789842 -20377.550157    280.302472
PE03  29515.526961    476.395633  -2127.276185   -527.821096
PE04 -20099.866124  11625.259350  18361.315372   -964.821491
PE05  21760.007477  12535.197237  15672.462426   -208.992785
PE07  -1451.728770 -17125.235292 -24096.204152   -639.075127
PE08  19676.469998 -11798.624178 -18699.525720   5855.205577
PE09   1771.139365  16981.300525  24180.956621   5360.018316
PE11   5764.906426  27038.111913 -10606.597655   4450.771783
PE12  -9598.104009  15126.835180 -23562.290365   4759.090594
PE13  -5352.286975 -26853.673051  11240.285870    426.542630
PE14 -17595.620470  14887.455721 -22905.394679  -1746.002501
PE15   9618.018155 -14956.584488  23673.178218    763.250828
PE18   8231.377268 -13028.109663  17864.068182  -1791.753073
PE21 -10983.798011 -13086.792081  24166.931398   -717.212341
PE24  -6568.061773  25664.447716 -13189.909273  -1390.996613
PE25  10813.393367  13296.587889 -24131.721355   -563.652699
PE26 -17424.456521 -22312.655199  -8629.325856   -806.357071
PE27   5494.956724 -25401.959213  14181.898605   -232.498648
PE30  19168.289937 -21990.032632  -5104.368916   -274.673802
PE31 -18597.453382  22659.331159   4065.196338   -492.199836
PE33 -18843.572245  -5696.669219 -22090.474286   -459.426571
PE34  18817.593416   5440.451445  22191.083287   -501.842195
PE36  17098.229537  22901.188835   7737.856137   -332.419608
PG01  15088.702855    276.978878  21617.365264    431.340190
PG02 -14793.949138 -19973.400164  -8513.445600   -650.868103
PG03  20722.746494  -9581.090307  13378.544609   -121.679807
PG04  25058.008877   -348.296019  -8917.911753   -189.520406
PG05 -14945.828589  -5471.797337 -21444.684802    -71.452805
PG06  -4854.570862 -25586.852618   5078.853737    201.736005
PG07   8411.367187 -16584.904231 -18392.079607    310.317375
PG08  25985.958308   6094.467350  -1844.662444    -56.200572
PG09  17911.678299  -9202.609803 -17404.424441   -354.143592
PG10  -8881.082826  22054.325868  11670.898894   -320.632522
PG11 -12511.278354 -21546.900876  -9224.283760    -88.759493
PG12 -20765.924014   5716.838536  15186.148392   -171.111474
PG13 -21614.671911 -13427.899078  -8049.723183    261.807259
PG14  10386.742379 -21866.738233  10841.388606    -83.931265
PG15 -26485.254128  -3392.293847  -1764.834965    -83.786644
PG16  11509.281335   9925.961761 -22064.750777   -469.507570
PG17   2969.811718 -14716.180488  22345.552074    575.184977
PG18  -8171.867028  16926.839623 -18726.182094    240.048483
PG19  -6110.525988 -16084.763642  20026.371077    119.006847
PG20  -8259.196550 -14765.558190 -20529.249795    516.700840
PG21  17865.936134  10017.612840  17913.426890    158.037842
PG22   9341.405383  16564.207664  19016.049266    213.670141
PG23 -16636.061426  20624.196062    786.911521      1.287325
PG24 -17375.685507  -4196.282447  19469.733537    274.482443
PG25 -19661.793771  16734.947900   5273.172844    285.606877
PG26   1693.386506  19229.605141 -18192.714518    183.275950
PG27  20396.647935  12561.578275 -12087.399583    119.288266
PG28   3587.926768 -19998.970370  17745.802206    400.332740
PG29 -20360.315030   5472.111198 -16235.391306   -480.280139
PG30   2358.663787 -23198.232781 -12414.549399   -513.405320
PG31   6134.285413  25469.303364   2237.201512   -164.751826
PG32   2480.331176  15791.168155  21367.562553    -67.816474
PJ01 -32128.455516  23810.475118  18444.819578    246.865142
PJ02 -33362.082431  24866.367898  11865.817896     -1.358699
PJ03 -23258.671245  18471.252171 -25314.289012     -0.535599
PR01  18858.287772 -11656.421247 -12604.208684      7.066730
PR02   -145.205998 -11090.667600 -22931.095978    509.662660
PR03 -17576.705226  -4212.588330 -17927.598855     51.487554
PR04 -24842.937144   4902.418419  -2999.037023    127.719972
PR05 -18429.578598  11213.232849  13603.298984     87.713044
PR07  18177.012657   3879.725374  17533.948659     31.637189
PR08  24862.016649  -4950.866558   3019.517679    -63.580157
PR09  -1470.154094  23837.002053  -9046.704789     39.513206
PR11  12137.518264  -6152.490459 -21566.902632     45.562961
PR12  10136.280698 -21771.399843  -8615.298946     17.188190
PR13   2247.257466 -24104.521667   8025.427100    -18.291297
PR14  -7524.642652 -11847.159455  21302.277518     74.358885
PR15 -12407.023674   6764.266616  21247.791176     98.180826
PR17 -18630.766714 -17210.199562  -2862.365806    501.647548
PR18 -17144.777386  -6325.253567 -17748.870716    107.274475
PR19  -7757.167729   6839.444023 -23312.765774   -178.214568
PR20   8563.652752  19051.695705 -14663.394236    -64.955998
PR21  18823.016428  16643.226607   4345.691028   -278.096923
PR22  16801.911294   5799.695815  18333.497560   -164.752350
PR24  -9247.075476 -19215.422165  14024.897121     80.241069
EOF
